<?xml version="1.0" encoding="UTF-8"?>
<osm version="0.6" generator="OpenStreetMap server" copyright="OpenStreetMap and contributors" attribution="http://www.openstreetmap.org/copyright" license="http://opendatacommons.org/licenses/odbl/1-0/">
    <bounds minlat="40.710938466293534" minlon="-74.01927642217414" maxlat="40.768831133706485" maxlon="-73.95406660952095"/>
    <node id="8549164" changeset="16779" timestamp="2012-12-04T23:16:33Z" version="1" visible="true" user="ideditor" uid="912" lat="40.7127643" lon="-74.0143874"/>
    <node id="4294969664" changeset="17339" timestamp="2013-01-20T06:31:23Z" version="1" visible="true" user="samanbb" uid="933" lat="40.7278529" lon="-73.9931648"/>
    <node id="4294969665" changeset="17339" timestamp="2013-01-20T06:31:23Z" version="1" visible="true" user="samanbb" uid="933" lat="40.7270931" lon="-73.9916056"/>
    <node id="4294969666" changeset="17339" timestamp="2013-01-20T06:31:23Z" version="1" visible="true" user="samanbb" uid="933" lat="40.7261927" lon="-73.9894281"/>
    <node id="4294969667" changeset="17339" timestamp="2013-01-20T06:31:23Z" version="1" visible="true" user="samanbb" uid="933" lat="40.7242714" lon="-73.9848523"/>
    <node id="4295723366" changeset="29045" timestamp="2013-07-25T19:12:43Z" version="1" visible="true" user="NINI1988" uid="1341" lat="40.7151684" lon="-74.0025136">
        <tag k="amenity" v="drinking_water"/>
        <tag k="name" v="geo_4z75-dszx-1.1003"/>
        <tag k="source" v="data.cityofnewyork.us"/>
    </node>
    <node id="4295723367" changeset="29045" timestamp="2013-07-25T19:12:43Z" version="1" visible="true" user="NINI1988" uid="1341" lat="40.7222035" lon="-74.0050137">
        <tag k="amenity" v="drinking_water"/>
        <tag k="name" v="geo_4z75-dszx-1.1004"/>
        <tag k="source" v="data.cityofnewyork.us"/>
    </node>
    <node id="4295723368" changeset="29045" timestamp="2013-07-25T19:12:43Z" version="1" visible="true" user="NINI1988" uid="1341" lat="40.7201064" lon="-73.9810986">
        <tag k="amenity" v="drinking_water"/>
        <tag k="name" v="geo_4z75-dszx-1.1005"/>
        <tag k="source" v="data.cityofnewyork.us"/>
    </node>
    <node id="4295723369" changeset="29045" timestamp="2013-07-25T19:12:43Z" version="1" visible="true" user="NINI1988" uid="1341" lat="40.719586" lon="-73.984231">
        <tag k="amenity" v="drinking_water"/>
        <tag k="name" v="geo_4z75-dszx-1.1006"/>
        <tag k="source" v="data.cityofnewyork.us"/>
    </node>
    <node id="4295723423" changeset="29045" timestamp="2013-07-25T19:12:45Z" version="1" visible="true" user="NINI1988" uid="1341" lat="40.7268524" lon="-74.003237">
        <tag k="amenity" v="drinking_water"/>
        <tag k="name" v="geo_4z75-dszx-1.1055"/>
        <tag k="source" v="data.cityofnewyork.us"/>
    </node>
    <node id="4295723424" changeset="29045" timestamp="2013-07-25T19:12:45Z" version="1" visible="true" user="NINI1988" uid="1341" lat="40.7123762" lon="-73.9885525">
        <tag k="amenity" v="drinking_water"/>
        <tag k="name" v="geo_4z75-dszx-1.1056"/>
        <tag k="source" v="data.cityofnewyork.us"/>
    </node>
    <node id="4295723425" changeset="29045" timestamp="2013-07-25T19:12:45Z" version="1" visible="true" user="NINI1988" uid="1341" lat="40.712137" lon="-73.9883772">
        <tag k="amenity" v="drinking_water"/>
        <tag k="name" v="geo_4z75-dszx-1.1057"/>
        <tag k="source" v="data.cityofnewyork.us"/>
    </node>
    <node id="4295723426" changeset="29045" timestamp="2013-07-25T19:12:46Z" version="1" visible="true" user="NINI1988" uid="1341" lat="40.7144482" lon="-73.9896363">
        <tag k="amenity" v="drinking_water"/>
        <tag k="name" v="geo_4z75-dszx-1.1058"/>
        <tag k="source" v="data.cityofnewyork.us"/>
    </node>
    <node id="4295723427" changeset="29045" timestamp="2013-07-25T19:12:46Z" version="1" visible="true" user="NINI1988" uid="1341" lat="40.7152347" lon="-73.989422">
        <tag k="amenity" v="drinking_water"/>
        <tag k="name" v="geo_4z75-dszx-1.1059"/>
        <tag k="source" v="data.cityofnewyork.us"/>
    </node>
    <node id="4295723429" changeset="29045" timestamp="2013-07-25T19:12:46Z" version="1" visible="true" user="NINI1988" uid="1341" lat="40.7217236" lon="-73.9959375">
        <tag k="amenity" v="drinking_water"/>
        <tag k="name" v="geo_4z75-dszx-1.1060"/>
        <tag k="source" v="data.cityofnewyork.us"/>
    </node>
    <node id="4295723489" changeset="29045" timestamp="2013-07-25T19:12:48Z" version="1" visible="true" user="NINI1988" uid="1341" lat="40.715096" lon="-73.9643665">
        <tag k="amenity" v="drinking_water"/>
        <tag k="name" v="geo_4z75-dszx-1.1114"/>
        <tag k="source" v="data.cityofnewyork.us"/>
    </node>
    <node id="4295723490" changeset="29045" timestamp="2013-07-25T19:12:48Z" version="1" visible="true" user="NINI1988" uid="1341" lat="40.7126975" lon="-73.9633641">
        <tag k="amenity" v="drinking_water"/>
        <tag k="name" v="geo_4z75-dszx-1.1115"/>
        <tag k="source" v="data.cityofnewyork.us"/>
    </node>
    <node id="4295723674" changeset="29045" timestamp="2013-07-25T19:12:57Z" version="1" visible="true" user="NINI1988" uid="1341" lat="40.711079" lon="-73.9549707">
        <tag k="amenity" v="drinking_water"/>
        <tag k="name" v="geo_4z75-dszx-1.1281"/>
        <tag k="source" v="data.cityofnewyork.us"/>
    </node>
    <node id="4295723715" changeset="29045" timestamp="2013-07-25T19:12:59Z" version="1" visible="true" user="NINI1988" uid="1341" lat="40.7355747" lon="-73.9589399">
        <tag k="amenity" v="drinking_water"/>
        <tag k="name" v="geo_4z75-dszx-1.1318"/>
        <tag k="source" v="data.cityofnewyork.us"/>
    </node>
    <node id="4295723716" changeset="29045" timestamp="2013-07-25T19:12:59Z" version="1" visible="true" user="NINI1988" uid="1341" lat="40.7357702" lon="-73.9598661">
        <tag k="amenity" v="drinking_water"/>
        <tag k="name" v="geo_4z75-dszx-1.1319"/>
        <tag k="source" v="data.cityofnewyork.us"/>
    </node>
    <node id="4295723718" changeset="29045" timestamp="2013-07-25T19:12:59Z" version="1" visible="true" user="NINI1988" uid="1341" lat="40.7360495" lon="-73.9603873">
        <tag k="amenity" v="drinking_water"/>
        <tag k="name" v="geo_4z75-dszx-1.1320"/>
        <tag k="source" v="data.cityofnewyork.us"/>
    </node>
    <node id="4295723719" changeset="29045" timestamp="2013-07-25T19:12:59Z" version="1" visible="true" user="NINI1988" uid="1341" lat="40.7434044" lon="-73.9549656">
        <tag k="amenity" v="drinking_water"/>
        <tag k="name" v="geo_4z75-dszx-1.1321"/>
        <tag k="source" v="data.cityofnewyork.us"/>
    </node>
    <node id="4295723737" changeset="29045" timestamp="2013-07-25T19:13:00Z" version="1" visible="true" user="NINI1988" uid="1341" lat="40.7466661" lon="-74.0041144">
        <tag k="amenity" v="drinking_water"/>
        <tag k="name" v="geo_4z75-dszx-1.1338"/>
        <tag k="source" v="data.cityofnewyork.us"/>
    </node>
    <node id="4295723743" changeset="29045" timestamp="2013-07-25T19:13:00Z" version="1" visible="true" user="NINI1988" uid="1341" lat="40.7235069" lon="-73.9893181">
        <tag k="amenity" v="drinking_water"/>
        <tag k="name" v="geo_4z75-dszx-1.1343"/>
        <tag k="source" v="data.cityofnewyork.us"/>
    </node>
    <node id="4295723757" changeset="29045" timestamp="2013-07-25T19:13:01Z" version="1" visible="true" user="NINI1988" uid="1341" lat="40.7187517" lon="-73.9933512">
        <tag k="amenity" v="drinking_water"/>
        <tag k="name" v="geo_4z75-dszx-1.1356"/>
        <tag k="source" v="data.cityofnewyork.us"/>
    </node>
    <node id="4295723758" changeset="29045" timestamp="2013-07-25T19:13:01Z" version="1" visible="true" user="NINI1988" uid="1341" lat="40.718613" lon="-73.9929122">
        <tag k="amenity" v="drinking_water"/>
        <tag k="name" v="geo_4z75-dszx-1.1357"/>
        <tag k="source" v="data.cityofnewyork.us"/>
    </node>
    <node id="4295723834" changeset="29045" timestamp="2013-07-25T19:13:04Z" version="1" visible="true" user="NINI1988" uid="1341" lat="40.7274975" lon="-73.9819789">
        <tag k="amenity" v="drinking_water"/>
        <tag k="name" v="geo_4z75-dszx-1.1425"/>
        <tag k="source" v="data.cityofnewyork.us"/>
    </node>
    <node id="4295723835" changeset="29045" timestamp="2013-07-25T19:13:04Z" version="1" visible="true" user="NINI1988" uid="1341" lat="40.7269852" lon="-73.9820254">
        <tag k="amenity" v="drinking_water"/>
        <tag k="name" v="geo_4z75-dszx-1.1426"/>
        <tag k="source" v="data.cityofnewyork.us"/>
    </node>
    <node id="4295723836" changeset="29045" timestamp="2013-07-25T19:13:04Z" version="1" visible="true" user="NINI1988" uid="1341" lat="40.7266326" lon="-73.9826422">
        <tag k="amenity" v="drinking_water"/>
        <tag k="name" v="geo_4z75-dszx-1.1427"/>
        <tag k="source" v="data.cityofnewyork.us"/>
    </node>
    <node id="4295723949" changeset="29045" timestamp="2013-07-25T19:13:09Z" version="1" visible="true" user="NINI1988" uid="1341" lat="40.7124255" lon="-73.9762207">
        <tag k="amenity" v="drinking_water"/>
        <tag k="name" v="geo_4z75-dszx-1.1529"/>
        <tag k="source" v="data.cityofnewyork.us"/>
    </node>
    <node id="4295723951" changeset="29045" timestamp="2013-07-25T19:13:09Z" version="1" visible="true" user="NINI1988" uid="1341" lat="40.7129252" lon="-73.976481">
        <tag k="amenity" v="drinking_water"/>
        <tag k="name" v="geo_4z75-dszx-1.1530"/>
        <tag k="source" v="data.cityofnewyork.us"/>
    </node>
    <node id="4295723952" changeset="29045" timestamp="2013-07-25T19:13:09Z" version="1" visible="true" user="NINI1988" uid="1341" lat="40.7138167" lon="-73.975769">
        <tag k="amenity" v="drinking_water"/>
        <tag k="name" v="geo_4z75-dszx-1.1531"/>
        <tag k="source" v="data.cityofnewyork.us"/>
    </node>
    <node id="4295723953" changeset="29045" timestamp="2013-07-25T19:13:09Z" version="1" visible="true" user="NINI1988" uid="1341" lat="40.7128242" lon="-73.9770762">
        <tag k="amenity" v="drinking_water"/>
        <tag k="name" v="geo_4z75-dszx-1.1532"/>
        <tag k="source" v="data.cityofnewyork.us"/>
    </node>
    <node id="4295723954" changeset="29045" timestamp="2013-07-25T19:13:09Z" version="1" visible="true" user="NINI1988" uid="1341" lat="40.712763" lon="-73.9772712">
        <tag k="amenity" v="drinking_water"/>
        <tag k="name" v="geo_4z75-dszx-1.1533"/>
        <tag k="source" v="data.cityofnewyork.us"/>
    </node>
    <node id="4295723955" changeset="29045" timestamp="2013-07-25T19:13:09Z" version="1" visible="true" user="NINI1988" uid="1341" lat="40.7133865" lon="-73.9767343">
        <tag k="amenity" v="drinking_water"/>
        <tag k="name" v="geo_4z75-dszx-1.1534"/>
        <tag k="source" v="data.cityofnewyork.us"/>
    </node>
    <node id="4295723956" changeset="29045" timestamp="2013-07-25T19:13:09Z" version="1" visible="true" user="NINI1988" uid="1341" lat="40.7152349" lon="-73.979768">
        <tag k="amenity" v="drinking_water"/>
        <tag k="name" v="geo_4z75-dszx-1.1535"/>
        <tag k="source" v="data.cityofnewyork.us"/>
    </node>
    <node id="4295723957" changeset="29045" timestamp="2013-07-25T19:13:09Z" version="1" visible="true" user="NINI1988" uid="1341" lat="40.7158713" lon="-73.9810551">
        <tag k="amenity" v="drinking_water"/>
        <tag k="name" v="geo_4z75-dszx-1.1536"/>
        <tag k="source" v="data.cityofnewyork.us"/>
    </node>
    <node id="4295723998" changeset="29045" timestamp="2013-07-25T19:13:11Z" version="1" visible="true" user="NINI1988" uid="1341" lat="40.7222122" lon="-73.9738505">
        <tag k="amenity" v="drinking_water"/>
        <tag k="name" v="geo_4z75-dszx-1.1573"/>
        <tag k="source" v="data.cityofnewyork.us"/>
    </node>
    <node id="4295723999" changeset="29045" timestamp="2013-07-25T19:13:11Z" version="1" visible="true" user="NINI1988" uid="1341" lat="40.7216267" lon="-73.9741483">
        <tag k="amenity" v="drinking_water"/>
        <tag k="name" v="geo_4z75-dszx-1.1574"/>
        <tag k="source" v="data.cityofnewyork.us"/>
    </node>
    <node id="4295724008" changeset="29045" timestamp="2013-07-25T19:13:12Z" version="1" visible="true" user="NINI1988" uid="1341" lat="40.7247275" lon="-73.9723486">
        <tag k="amenity" v="drinking_water"/>
        <tag k="name" v="geo_4z75-dszx-1.1582"/>
        <tag k="source" v="data.cityofnewyork.us"/>
    </node>
    <node id="4295724010" changeset="29045" timestamp="2013-07-25T19:13:12Z" version="1" visible="true" user="NINI1988" uid="1341" lat="40.7112648" lon="-73.9774642">
        <tag k="amenity" v="drinking_water"/>
        <tag k="name" v="geo_4z75-dszx-1.1584"/>
        <tag k="source" v="data.cityofnewyork.us"/>
    </node>
    <node id="4295724011" changeset="29045" timestamp="2013-07-25T19:13:12Z" version="1" visible="true" user="NINI1988" uid="1341" lat="40.7140495" lon="-73.9818024">
        <tag k="amenity" v="drinking_water"/>
        <tag k="name" v="geo_4z75-dszx-1.1585"/>
        <tag k="source" v="data.cityofnewyork.us"/>
    </node>
    <node id="4295724012" changeset="29045" timestamp="2013-07-25T19:13:12Z" version="1" visible="true" user="NINI1988" uid="1341" lat="40.7157115" lon="-73.9752396">
        <tag k="amenity" v="drinking_water"/>
        <tag k="name" v="geo_4z75-dszx-1.1586"/>
        <tag k="source" v="data.cityofnewyork.us"/>
    </node>
    <node id="4295724013" changeset="29045" timestamp="2013-07-25T19:13:12Z" version="1" visible="true" user="NINI1988" uid="1341" lat="40.7164885" lon="-73.9753492">
        <tag k="amenity" v="drinking_water"/>
        <tag k="name" v="geo_4z75-dszx-1.1587"/>
        <tag k="source" v="data.cityofnewyork.us"/>
    </node>
    <node id="4295724230" changeset="29045" timestamp="2013-07-25T19:13:22Z" version="1" visible="true" user="NINI1988" uid="1341" lat="40.716452" lon="-74.0015388">
        <tag k="amenity" v="drinking_water"/>
        <tag k="name" v="geo_4z75-dszx-1.1782"/>
        <tag k="source" v="data.cityofnewyork.us"/>
    </node>
    <node id="4295724253" changeset="29045" timestamp="2013-07-25T19:13:23Z" version="1" visible="true" user="NINI1988" uid="1341" lat="40.7254669" lon="-74.0024654">
        <tag k="amenity" v="drinking_water"/>
        <tag k="name" v="geo_4z75-dszx-1.1802"/>
        <tag k="source" v="data.cityofnewyork.us"/>
    </node>
    <node id="4295724255" changeset="29045" timestamp="2013-07-25T19:13:23Z" version="1" visible="true" user="NINI1988" uid="1341" lat="40.7126477" lon="-73.9879803">
        <tag k="amenity" v="drinking_water"/>
        <tag k="name" v="geo_4z75-dszx-1.1804"/>
        <tag k="source" v="data.cityofnewyork.us"/>
    </node>
    <node id="4295724256" changeset="29045" timestamp="2013-07-25T19:13:23Z" version="1" visible="true" user="NINI1988" uid="1341" lat="40.7114285" lon="-73.9864152">
        <tag k="amenity" v="drinking_water"/>
        <tag k="name" v="geo_4z75-dszx-1.1805"/>
        <tag k="source" v="data.cityofnewyork.us"/>
    </node>
    <node id="4295724257" changeset="29045" timestamp="2013-07-25T19:13:23Z" version="1" visible="true" user="NINI1988" uid="1341" lat="40.7143687" lon="-73.9840058">
        <tag k="amenity" v="drinking_water"/>
        <tag k="name" v="geo_4z75-dszx-1.1806"/>
        <tag k="source" v="data.cityofnewyork.us"/>
    </node>
    <node id="4295724258" changeset="29045" timestamp="2013-07-25T19:13:23Z" version="1" visible="true" user="NINI1988" uid="1341" lat="40.7143226" lon="-73.9896217">
        <tag k="amenity" v="drinking_water"/>
        <tag k="name" v="geo_4z75-dszx-1.1807"/>
        <tag k="source" v="data.cityofnewyork.us"/>
    </node>
    <node id="4295724259" changeset="29045" timestamp="2013-07-25T19:13:23Z" version="1" visible="true" user="NINI1988" uid="1341" lat="40.7148003" lon="-73.98922">
        <tag k="amenity" v="drinking_water"/>
        <tag k="name" v="geo_4z75-dszx-1.1808"/>
        <tag k="source" v="data.cityofnewyork.us"/>
    </node>
    <node id="4295724260" changeset="29045" timestamp="2013-07-25T19:13:23Z" version="1" visible="true" user="NINI1988" uid="1341" lat="40.7133264" lon="-73.9942527">
        <tag k="amenity" v="drinking_water"/>
        <tag k="name" v="geo_4z75-dszx-1.1809"/>
        <tag k="source" v="data.cityofnewyork.us"/>
    </node>
    <node id="4295724361" changeset="29045" timestamp="2013-07-25T19:13:28Z" version="1" visible="true" user="NINI1988" uid="1341" lat="40.714851" lon="-74.0002664">
        <tag k="amenity" v="drinking_water"/>
        <tag k="name" v="geo_4z75-dszx-1.190"/>
        <tag k="source" v="data.cityofnewyork.us"/>
    </node>
    <node id="4295724363" changeset="29045" timestamp="2013-07-25T19:13:28Z" version="1" visible="true" user="NINI1988" uid="1341" lat="40.7134047" lon="-73.9543982">
        <tag k="amenity" v="drinking_water"/>
        <tag k="name" v="geo_4z75-dszx-1.1901"/>
        <tag k="source" v="data.cityofnewyork.us"/>
    </node>
    <node id="4295724364" changeset="29045" timestamp="2013-07-25T19:13:28Z" version="1" visible="true" user="NINI1988" uid="1341" lat="40.7130897" lon="-73.9547619">
        <tag k="amenity" v="drinking_water"/>
        <tag k="name" v="geo_4z75-dszx-1.1902"/>
        <tag k="source" v="data.cityofnewyork.us"/>
    </node>
    <node id="4295724372" changeset="29045" timestamp="2013-07-25T19:13:28Z" version="1" visible="true" user="NINI1988" uid="1341" lat="40.7149633" lon="-74.0001883">
        <tag k="amenity" v="drinking_water"/>
        <tag k="name" v="geo_4z75-dszx-1.191"/>
        <tag k="source" v="data.cityofnewyork.us"/>
    </node>
    <node id="4295724379" changeset="29045" timestamp="2013-07-25T19:13:29Z" version="1" visible="true" user="NINI1988" uid="1341" lat="40.7388722" lon="-74.0031386">
        <tag k="amenity" v="drinking_water"/>
        <tag k="name" v="geo_4z75-dszx-1.1916"/>
        <tag k="source" v="data.cityofnewyork.us"/>
    </node>
    <node id="4295724380" changeset="29045" timestamp="2013-07-25T19:13:29Z" version="1" visible="true" user="NINI1988" uid="1341" lat="40.7364732" lon="-74.0056545">
        <tag k="amenity" v="drinking_water"/>
        <tag k="name" v="geo_4z75-dszx-1.1917"/>
        <tag k="source" v="data.cityofnewyork.us"/>
    </node>
    <node id="4295724381" changeset="29045" timestamp="2013-07-25T19:13:29Z" version="1" visible="true" user="NINI1988" uid="1341" lat="40.7363783" lon="-74.0055765">
        <tag k="amenity" v="drinking_water"/>
        <tag k="name" v="geo_4z75-dszx-1.1918"/>
        <tag k="source" v="data.cityofnewyork.us"/>
    </node>
    <node id="4295724385" changeset="29045" timestamp="2013-07-25T19:13:29Z" version="1" visible="true" user="NINI1988" uid="1341" lat="40.724425" lon="-73.9855214">
        <tag k="amenity" v="drinking_water"/>
        <tag k="name" v="geo_4z75-dszx-1.1921"/>
        <tag k="source" v="data.cityofnewyork.us"/>
    </node>
    <node id="4295724386" changeset="29045" timestamp="2013-07-25T19:13:29Z" version="1" visible="true" user="NINI1988" uid="1341" lat="40.7218676" lon="-73.9860151">
        <tag k="amenity" v="drinking_water"/>
        <tag k="name" v="geo_4z75-dszx-1.1922"/>
        <tag k="source" v="data.cityofnewyork.us"/>
    </node>
    <node id="4295724463" changeset="29045" timestamp="2013-07-25T19:13:33Z" version="1" visible="true" user="NINI1988" uid="1341" lat="40.7241908" lon="-73.9728017">
        <tag k="amenity" v="drinking_water"/>
        <tag k="name" v="geo_4z75-dszx-1.204"/>
        <tag k="source" v="data.cityofnewyork.us"/>
    </node>
    <node id="4295724464" changeset="29045" timestamp="2013-07-25T19:13:33Z" version="1" visible="true" user="NINI1988" uid="1341" lat="40.7269278" lon="-73.9813618">
        <tag k="amenity" v="drinking_water"/>
        <tag k="name" v="geo_4z75-dszx-1.205"/>
        <tag k="source" v="data.cityofnewyork.us"/>
    </node>
    <node id="4295724465" changeset="29045" timestamp="2013-07-25T19:13:33Z" version="1" visible="true" user="NINI1988" uid="1341" lat="40.727132" lon="-73.9814758">
        <tag k="amenity" v="drinking_water"/>
        <tag k="name" v="geo_4z75-dszx-1.206"/>
        <tag k="source" v="data.cityofnewyork.us"/>
    </node>
    <node id="4295724466" changeset="29045" timestamp="2013-07-25T19:13:33Z" version="1" visible="true" user="NINI1988" uid="1341" lat="40.726967" lon="-73.9820785">
        <tag k="amenity" v="drinking_water"/>
        <tag k="name" v="geo_4z75-dszx-1.207"/>
        <tag k="source" v="data.cityofnewyork.us"/>
    </node>
    <node id="4295724467" changeset="29045" timestamp="2013-07-25T19:13:33Z" version="1" visible="true" user="NINI1988" uid="1341" lat="40.7266622" lon="-73.9821773">
        <tag k="amenity" v="drinking_water"/>
        <tag k="name" v="geo_4z75-dszx-1.208"/>
        <tag k="source" v="data.cityofnewyork.us"/>
    </node>
    <node id="4295724468" changeset="29045" timestamp="2013-07-25T19:13:33Z" version="1" visible="true" user="NINI1988" uid="1341" lat="40.7261655" lon="-73.982603">
        <tag k="amenity" v="drinking_water"/>
        <tag k="name" v="geo_4z75-dszx-1.209"/>
        <tag k="source" v="data.cityofnewyork.us"/>
    </node>
    <node id="4295724470" changeset="29045" timestamp="2013-07-25T19:13:33Z" version="1" visible="true" user="NINI1988" uid="1341" lat="40.7266247" lon="-73.9806205">
        <tag k="amenity" v="drinking_water"/>
        <tag k="name" v="geo_4z75-dszx-1.210"/>
        <tag k="source" v="data.cityofnewyork.us"/>
    </node>
    <node id="4295724471" changeset="29045" timestamp="2013-07-25T19:13:33Z" version="1" visible="true" user="NINI1988" uid="1341" lat="40.7264343" lon="-73.9808608">
        <tag k="amenity" v="drinking_water"/>
        <tag k="name" v="geo_4z75-dszx-1.211"/>
        <tag k="source" v="data.cityofnewyork.us"/>
    </node>
    <node id="4295724472" changeset="29045" timestamp="2013-07-25T19:13:33Z" version="1" visible="true" user="NINI1988" uid="1341" lat="40.7257735" lon="-73.9815008">
        <tag k="amenity" v="drinking_water"/>
        <tag k="name" v="geo_4z75-dszx-1.212"/>
        <tag k="source" v="data.cityofnewyork.us"/>
    </node>
    <node id="4295724473" changeset="29045" timestamp="2013-07-25T19:13:33Z" version="1" visible="true" user="NINI1988" uid="1341" lat="40.7256357" lon="-73.9813208">
        <tag k="amenity" v="drinking_water"/>
        <tag k="name" v="geo_4z75-dszx-1.213"/>
        <tag k="source" v="data.cityofnewyork.us"/>
    </node>
    <node id="4295724474" changeset="29045" timestamp="2013-07-25T19:13:33Z" version="1" visible="true" user="NINI1988" uid="1341" lat="40.7254435" lon="-73.9817223">
        <tag k="amenity" v="drinking_water"/>
        <tag k="name" v="geo_4z75-dszx-1.214"/>
        <tag k="source" v="data.cityofnewyork.us"/>
    </node>
    <node id="4295724475" changeset="29045" timestamp="2013-07-25T19:13:33Z" version="1" visible="true" user="NINI1988" uid="1341" lat="40.722606" lon="-73.991272">
        <tag k="amenity" v="drinking_water"/>
        <tag k="name" v="geo_4z75-dszx-1.215"/>
        <tag k="source" v="data.cityofnewyork.us"/>
    </node>
    <node id="4295724476" changeset="29045" timestamp="2013-07-25T19:13:33Z" version="1" visible="true" user="NINI1988" uid="1341" lat="40.7225807" lon="-73.9908807">
        <tag k="amenity" v="drinking_water"/>
        <tag k="name" v="geo_4z75-dszx-1.216"/>
        <tag k="source" v="data.cityofnewyork.us"/>
    </node>
    <node id="4295724569" changeset="29045" timestamp="2013-07-25T19:13:38Z" version="1" visible="true" user="NINI1988" uid="1341" lat="40.7359577" lon="-73.9818127">
        <tag k="amenity" v="drinking_water"/>
        <tag k="name" v="geo_4z75-dszx-1.30"/>
        <tag k="source" v="data.cityofnewyork.us"/>
    </node>
    <node id="4295724616" changeset="29045" timestamp="2013-07-25T19:13:40Z" version="1" visible="true" user="NINI1988" uid="1341" lat="40.7309243" lon="-73.996864">
        <tag k="amenity" v="drinking_water"/>
        <tag k="name" v="geo_4z75-dszx-1.342"/>
        <tag k="source" v="data.cityofnewyork.us"/>
    </node>
    <node id="4295724660" changeset="29045" timestamp="2013-07-25T19:13:42Z" version="1" visible="true" user="NINI1988" uid="1341" lat="40.7480051" lon="-73.9685566">
        <tag k="amenity" v="drinking_water"/>
        <tag k="name" v="geo_4z75-dszx-1.382"/>
        <tag k="source" v="data.cityofnewyork.us"/>
    </node>
    <node id="4295724661" changeset="29045" timestamp="2013-07-25T19:13:42Z" version="1" visible="true" user="NINI1988" uid="1341" lat="40.7571853" lon="-73.9600795">
        <tag k="amenity" v="drinking_water"/>
        <tag k="name" v="geo_4z75-dszx-1.383"/>
        <tag k="source" v="data.cityofnewyork.us"/>
    </node>
    <node id="4295724662" changeset="29045" timestamp="2013-07-25T19:13:42Z" version="1" visible="true" user="NINI1988" uid="1341" lat="40.7595013" lon="-73.9586698">
        <tag k="amenity" v="drinking_water"/>
        <tag k="name" v="geo_4z75-dszx-1.384"/>
        <tag k="source" v="data.cityofnewyork.us"/>
    </node>
    <node id="4295724663" changeset="29045" timestamp="2013-07-25T19:13:42Z" version="1" visible="true" user="NINI1988" uid="1341" lat="40.759384" lon="-73.9587093">
        <tag k="amenity" v="drinking_water"/>
        <tag k="name" v="geo_4z75-dszx-1.385"/>
        <tag k="source" v="data.cityofnewyork.us"/>
    </node>
    <node id="4295724664" changeset="29045" timestamp="2013-07-25T19:13:42Z" version="1" visible="true" user="NINI1988" uid="1341" lat="40.7595062" lon="-73.9587808">
        <tag k="amenity" v="drinking_water"/>
        <tag k="name" v="geo_4z75-dszx-1.386"/>
        <tag k="source" v="data.cityofnewyork.us"/>
    </node>
    <node id="4295724732" changeset="29045" timestamp="2013-07-25T19:13:45Z" version="1" visible="true" user="NINI1988" uid="1341" lat="40.7311387" lon="-73.9992725">
        <tag k="amenity" v="drinking_water"/>
        <tag k="name" v="geo_4z75-dszx-1.447"/>
        <tag k="source" v="data.cityofnewyork.us"/>
    </node>
    <node id="4295724733" changeset="29045" timestamp="2013-07-25T19:13:45Z" version="1" visible="true" user="NINI1988" uid="1341" lat="40.7315068" lon="-73.9974877">
        <tag k="amenity" v="drinking_water"/>
        <tag k="name" v="geo_4z75-dszx-1.448"/>
        <tag k="source" v="data.cityofnewyork.us"/>
    </node>
    <node id="4295724734" changeset="29045" timestamp="2013-07-25T19:13:46Z" version="1" visible="true" user="NINI1988" uid="1341" lat="40.7306862" lon="-73.9985735">
        <tag k="amenity" v="drinking_water"/>
        <tag k="name" v="geo_4z75-dszx-1.449"/>
        <tag k="source" v="data.cityofnewyork.us"/>
    </node>
    <node id="4295724736" changeset="29045" timestamp="2013-07-25T19:13:46Z" version="1" visible="true" user="NINI1988" uid="1341" lat="40.7309954" lon="-74.0009958">
        <tag k="amenity" v="drinking_water"/>
        <tag k="name" v="geo_4z75-dszx-1.450"/>
        <tag k="source" v="data.cityofnewyork.us"/>
    </node>
    <node id="4295724737" changeset="29045" timestamp="2013-07-25T19:13:46Z" version="1" visible="true" user="NINI1988" uid="1341" lat="40.730613" lon="-73.9970528">
        <tag k="amenity" v="drinking_water"/>
        <tag k="name" v="geo_4z75-dszx-1.451"/>
        <tag k="source" v="data.cityofnewyork.us"/>
    </node>
    <node id="4295724738" changeset="29045" timestamp="2013-07-25T19:13:46Z" version="1" visible="true" user="NINI1988" uid="1341" lat="40.7304135" lon="-73.9963499">
        <tag k="amenity" v="drinking_water"/>
        <tag k="name" v="geo_4z75-dszx-1.452"/>
        <tag k="source" v="data.cityofnewyork.us"/>
    </node>
    <node id="4295724739" changeset="29045" timestamp="2013-07-25T19:13:46Z" version="1" visible="true" user="NINI1988" uid="1341" lat="40.7299985" lon="-73.9965283">
        <tag k="amenity" v="drinking_water"/>
        <tag k="name" v="geo_4z75-dszx-1.453"/>
        <tag k="source" v="data.cityofnewyork.us"/>
    </node>
    <node id="4295724740" changeset="29045" timestamp="2013-07-25T19:13:46Z" version="1" visible="true" user="NINI1988" uid="1341" lat="40.7279886" lon="-73.9959734">
        <tag k="amenity" v="drinking_water"/>
        <tag k="name" v="geo_4z75-dszx-1.454"/>
        <tag k="source" v="data.cityofnewyork.us"/>
    </node>
    <node id="4295724812" changeset="29045" timestamp="2013-07-25T19:13:49Z" version="1" visible="true" user="NINI1988" uid="1341" lat="40.7231593" lon="-73.9725502">
        <tag k="amenity" v="drinking_water"/>
        <tag k="name" v="geo_4z75-dszx-1.519"/>
        <tag k="source" v="data.cityofnewyork.us"/>
    </node>
    <node id="4295724814" changeset="29045" timestamp="2013-07-25T19:13:49Z" version="1" visible="true" user="NINI1988" uid="1341" lat="40.7235703" lon="-73.9725563">
        <tag k="amenity" v="drinking_water"/>
        <tag k="name" v="geo_4z75-dszx-1.520"/>
        <tag k="source" v="data.cityofnewyork.us"/>
    </node>
    <node id="4295724815" changeset="29045" timestamp="2013-07-25T19:13:50Z" version="1" visible="true" user="NINI1988" uid="1341" lat="40.725599" lon="-73.9756014">
        <tag k="amenity" v="drinking_water"/>
        <tag k="name" v="geo_4z75-dszx-1.521"/>
        <tag k="source" v="data.cityofnewyork.us"/>
    </node>
    <node id="4295724816" changeset="29045" timestamp="2013-07-25T19:13:50Z" version="1" visible="true" user="NINI1988" uid="1341" lat="40.7253226" lon="-73.9751694">
        <tag k="amenity" v="drinking_water"/>
        <tag k="name" v="geo_4z75-dszx-1.522"/>
        <tag k="source" v="data.cityofnewyork.us"/>
    </node>
    <node id="4295724817" changeset="29045" timestamp="2013-07-25T19:13:50Z" version="1" visible="true" user="NINI1988" uid="1341" lat="40.7119172" lon="-73.9778558">
        <tag k="amenity" v="drinking_water"/>
        <tag k="name" v="geo_4z75-dszx-1.523"/>
        <tag k="source" v="data.cityofnewyork.us"/>
    </node>
    <node id="4295724818" changeset="29045" timestamp="2013-07-25T19:13:50Z" version="1" visible="true" user="NINI1988" uid="1341" lat="40.7111973" lon="-73.9774916">
        <tag k="amenity" v="drinking_water"/>
        <tag k="name" v="geo_4z75-dszx-1.524"/>
        <tag k="source" v="data.cityofnewyork.us"/>
    </node>
    <node id="4295724820" changeset="29045" timestamp="2013-07-25T19:13:50Z" version="1" visible="true" user="NINI1988" uid="1341" lat="40.7116082" lon="-73.9796817">
        <tag k="amenity" v="drinking_water"/>
        <tag k="name" v="geo_4z75-dszx-1.526"/>
        <tag k="source" v="data.cityofnewyork.us"/>
    </node>
    <node id="4295724821" changeset="29045" timestamp="2013-07-25T19:13:50Z" version="1" visible="true" user="NINI1988" uid="1341" lat="40.7172202" lon="-73.9770954">
        <tag k="amenity" v="drinking_water"/>
        <tag k="name" v="geo_4z75-dszx-1.527"/>
        <tag k="source" v="data.cityofnewyork.us"/>
    </node>
    <node id="4295724822" changeset="29045" timestamp="2013-07-25T19:13:50Z" version="1" visible="true" user="NINI1988" uid="1341" lat="40.7173406" lon="-73.9767151">
        <tag k="amenity" v="drinking_water"/>
        <tag k="name" v="geo_4z75-dszx-1.528"/>
        <tag k="source" v="data.cityofnewyork.us"/>
    </node>
    <node id="4295724823" changeset="29045" timestamp="2013-07-25T19:13:50Z" version="1" visible="true" user="NINI1988" uid="1341" lat="40.7194638" lon="-73.9770968">
        <tag k="amenity" v="drinking_water"/>
        <tag k="name" v="geo_4z75-dszx-1.529"/>
        <tag k="source" v="data.cityofnewyork.us"/>
    </node>
    <node id="4295724825" changeset="29045" timestamp="2013-07-25T19:13:50Z" version="1" visible="true" user="NINI1988" uid="1341" lat="40.7154508" lon="-73.9639387">
        <tag k="amenity" v="drinking_water"/>
        <tag k="name" v="geo_4z75-dszx-1.530"/>
        <tag k="source" v="data.cityofnewyork.us"/>
    </node>
    <node id="4295724826" changeset="29045" timestamp="2013-07-25T19:13:50Z" version="1" visible="true" user="NINI1988" uid="1341" lat="40.7166794" lon="-73.9666955">
        <tag k="amenity" v="drinking_water"/>
        <tag k="name" v="geo_4z75-dszx-1.531"/>
        <tag k="source" v="data.cityofnewyork.us"/>
    </node>
    <node id="4295724948" changeset="29045" timestamp="2013-07-25T19:13:56Z" version="1" visible="true" user="NINI1988" uid="1341" lat="40.7217433" lon="-73.9549139">
        <tag k="amenity" v="drinking_water"/>
        <tag k="name" v="geo_4z75-dszx-1.641"/>
        <tag k="source" v="data.cityofnewyork.us"/>
    </node>
    <node id="4295724949" changeset="29045" timestamp="2013-07-25T19:13:56Z" version="1" visible="true" user="NINI1988" uid="1341" lat="40.7209342" lon="-73.9549499">
        <tag k="amenity" v="drinking_water"/>
        <tag k="name" v="geo_4z75-dszx-1.642"/>
        <tag k="source" v="data.cityofnewyork.us"/>
    </node>
    <node id="4295724950" changeset="29045" timestamp="2013-07-25T19:13:56Z" version="1" visible="true" user="NINI1988" uid="1341" lat="40.7286966" lon="-73.9579712">
        <tag k="amenity" v="drinking_water"/>
        <tag k="name" v="geo_4z75-dszx-1.643"/>
        <tag k="source" v="data.cityofnewyork.us"/>
    </node>
    <node id="4295725166" changeset="29045" timestamp="2013-07-25T19:14:07Z" version="1" visible="true" user="NINI1988" uid="1341" lat="40.728842" lon="-74.0023839">
        <tag k="amenity" v="drinking_water"/>
        <tag k="name" v="geo_4z75-dszx-1.838"/>
        <tag k="source" v="data.cityofnewyork.us"/>
    </node>
    <node id="4295725167" changeset="29045" timestamp="2013-07-25T19:14:07Z" version="1" visible="true" user="NINI1988" uid="1341" lat="40.7298057" lon="-74.0027781">
        <tag k="amenity" v="drinking_water"/>
        <tag k="name" v="geo_4z75-dszx-1.839"/>
        <tag k="source" v="data.cityofnewyork.us"/>
    </node>
    <node id="4295725169" changeset="29045" timestamp="2013-07-25T19:14:07Z" version="1" visible="true" user="NINI1988" uid="1341" lat="40.7300225" lon="-74.0064502">
        <tag k="amenity" v="drinking_water"/>
        <tag k="name" v="geo_4z75-dszx-1.840"/>
        <tag k="source" v="data.cityofnewyork.us"/>
    </node>
    <node id="4295725170" changeset="29045" timestamp="2013-07-25T19:14:08Z" version="1" visible="true" user="NINI1988" uid="1341" lat="40.7296428" lon="-74.0064501">
        <tag k="amenity" v="drinking_water"/>
        <tag k="name" v="geo_4z75-dszx-1.841"/>
        <tag k="source" v="data.cityofnewyork.us"/>
    </node>
    <node id="4295725171" changeset="29045" timestamp="2013-07-25T19:14:08Z" version="1" visible="true" user="NINI1988" uid="1341" lat="40.7280629" lon="-74.0027574">
        <tag k="amenity" v="drinking_water"/>
        <tag k="name" v="geo_4z75-dszx-1.842"/>
        <tag k="source" v="data.cityofnewyork.us"/>
    </node>
    <node id="4295725172" changeset="29045" timestamp="2013-07-25T19:14:08Z" version="1" visible="true" user="NINI1988" uid="1341" lat="40.7305346" lon="-74.0013888">
        <tag k="amenity" v="drinking_water"/>
        <tag k="name" v="geo_4z75-dszx-1.843"/>
        <tag k="source" v="data.cityofnewyork.us"/>
    </node>
    <node id="4295725173" changeset="29045" timestamp="2013-07-25T19:14:08Z" version="1" visible="true" user="NINI1988" uid="1341" lat="40.7112986" lon="-73.9940267">
        <tag k="amenity" v="drinking_water"/>
        <tag k="name" v="geo_4z75-dszx-1.844"/>
        <tag k="source" v="data.cityofnewyork.us"/>
    </node>
    <node id="4295725174" changeset="29045" timestamp="2013-07-25T19:14:08Z" version="1" visible="true" user="NINI1988" uid="1341" lat="40.7110003" lon="-73.9933717">
        <tag k="amenity" v="drinking_water"/>
        <tag k="name" v="geo_4z75-dszx-1.845"/>
        <tag k="source" v="data.cityofnewyork.us"/>
    </node>
    <node id="4295725176" changeset="29045" timestamp="2013-07-25T19:14:08Z" version="1" visible="true" user="NINI1988" uid="1341" lat="40.7121584" lon="-73.9975225">
        <tag k="amenity" v="drinking_water"/>
        <tag k="name" v="geo_4z75-dszx-1.847"/>
        <tag k="source" v="data.cityofnewyork.us"/>
    </node>
    <node id="4295725177" changeset="29045" timestamp="2013-07-25T19:14:08Z" version="1" visible="true" user="NINI1988" uid="1341" lat="40.7121743" lon="-73.9972957">
        <tag k="amenity" v="drinking_water"/>
        <tag k="name" v="geo_4z75-dszx-1.848"/>
        <tag k="source" v="data.cityofnewyork.us"/>
    </node>
    <node id="4295725178" changeset="29045" timestamp="2013-07-25T19:14:08Z" version="1" visible="true" user="NINI1988" uid="1341" lat="40.7144744" lon="-73.9997802">
        <tag k="amenity" v="drinking_water"/>
        <tag k="name" v="geo_4z75-dszx-1.849"/>
        <tag k="source" v="data.cityofnewyork.us"/>
    </node>
    <node id="4295725180" changeset="29045" timestamp="2013-07-25T19:14:08Z" version="1" visible="true" user="NINI1988" uid="1341" lat="40.7202727" lon="-73.9924302">
        <tag k="amenity" v="drinking_water"/>
        <tag k="name" v="geo_4z75-dszx-1.850"/>
        <tag k="source" v="data.cityofnewyork.us"/>
    </node>
    <node id="4295729171" changeset="30001" timestamp="2013-08-16T14:56:24Z" version="1" visible="true" user="NINI1988" uid="1341" lat="40.7412401" lon="-73.9900842">
        <tag k="amenity" v="drinking_water"/>
        <tag k="source" v="drinking_water"/>
    </node>
    <node id="4295729172" changeset="30003" timestamp="2013-08-16T14:56:45Z" version="2" visible="true" user="NINI1988" uid="1341" lat="40.7398523" lon="-73.9888322">
        <tag k="amenity" v="drinking_water"/>
        <tag k="source" v="drinking_water"/>
        <tag k="stateofrepair" v="ok"/>
    </node>
    <node id="4295729173" changeset="30006" timestamp="2013-08-16T15:00:38Z" version="1" visible="true" user="NINI1988" uid="1341" lat="40.7399344" lon="-73.9890991">
        <tag k="amenity" v="drinking_water"/>
        <tag k="source" v="drinking_water"/>
    </node>
    <node id="4295729174" changeset="30013" timestamp="2013-08-16T15:14:52Z" version="1" visible="true" user="NINI1988" uid="1341" lat="40.7415515" lon="-73.9920381">
        <tag k="amenity" v="drinking_water"/>
        <tag k="source" v="drinking_water"/>
    </node>
    <node id="4295729176" changeset="30014" timestamp="2013-08-16T17:16:16Z" version="1" visible="true" user="NINI1988" uid="1341" lat="40.7459374" lon="-73.9921122">
        <tag k="amenity" v="drinking_water"/>
        <tag k="source" v="drinking_water"/>
        <tag k="stateofrepair" v="ok"/>
    </node>
    <node id="4295729175" changeset="30029" timestamp="2013-08-16T23:47:13Z" version="2" visible="true" user="NINI1988" uid="1341" lat="40.7385316" lon="-73.9887417">
        <tag k="amenity" v="drinking_water"/>
        <tag k="source" v="drinking_water"/>
        <tag k="stateofrepair" v="ok"/>
    </node>
    <node id="4295729177" changeset="30029" timestamp="2013-08-16T23:48:31Z" version="2" visible="true" user="NINI1988" uid="1341" lat="40.7405085" lon="-73.9946359">
        <tag k="amenity" v="drinking_water"/>
        <tag k="source" v="drinking_water"/>
        <tag k="stateofrepair" v="broken"/>
    </node>
    <node id="4295729178" changeset="30029" timestamp="2013-08-16T23:49:11Z" version="2" visible="true" user="NINI1988" uid="1341" lat="40.7347568" lon="-73.9944112">
        <tag k="amenity" v="drinking_water"/>
        <tag k="source" v="drinking_water"/>
        <tag k="stateofrepair" v="needs_repair"/>
    </node>
    <node id="4299544874" changeset="63537" timestamp="2015-06-15T13:47:09Z" version="1" visible="true" user="test-dev" uid="2972" lat="40.7470294" lon="-73.9699817">
        <tag k="amenity" v="cafe"/>
        <tag k="name" v="44th Street Minar"/>
        <tag k="opening_hours" v="Mo-Fr. 07:30 - 22:00, Sa - Su. 08:00 - 22:00"/>
        <tag k="shop" v="cafe"/>
        <tag k="website" v="http://bierhausnyc.com/"/>
    </node>
    <node id="4299544875" changeset="63538" timestamp="2015-06-15T13:47:18Z" version="1" visible="true" user="test-dev" uid="2972" lat="40.7478259" lon="-73.9694023">
        <tag k="amenity" v="cafe"/>
        <tag k="name" v="99C Pizza"/>
        <tag k="opening_hours" v="Mo-Fr. 07:30 - 22:00, Sa - Su. 08:00 - 22:00"/>
        <tag k="shop" v="cafe"/>
        <tag k="website" v="http://bierhausnyc.com/"/>
    </node>
    <node id="4299549300" changeset="63584" timestamp="2015-06-17T14:49:49Z" version="1" visible="true" user="test-dev" uid="2972" lat="40.7481673" lon="-73.9733934">
        <tag k="amenity" v="cafe"/>
        <tag k="name" v="'wichcraft"/>
        <tag k="opening_hours" v="24/7"/>
        <tag k="shop" v="cafe"/>
        <tag k="website" v="http://53rdand6th.com/"/>
    </node>
    <node id="4299549301" changeset="63585" timestamp="2015-06-17T14:54:18Z" version="1" visible="true" user="test-dev" uid="2972" lat="40.7491101" lon="-73.9695954">
        <tag k="amenity" v="cafe"/>
        <tag k="name" v="'wichcraft"/>
        <tag k="opening_hours" v="24/7"/>
        <tag k="shop" v="cafe"/>
        <tag k="website" v="http://ammosnewyork.com/"/>
    </node>
    <node id="4299549302" changeset="63586" timestamp="2015-06-17T14:54:38Z" version="1" visible="true" user="test-dev" uid="2972" lat="40.7481673" lon="-73.9705825">
        <tag k="amenity" v="cafe"/>
        <tag k="name" v="4food"/>
        <tag k="opening_hours" v="24/7"/>
        <tag k="shop" v="cafe"/>
        <tag k="website" v="http://alcalarestaurant.com/"/>
    </node>
    <node id="4299549303" changeset="63587" timestamp="2015-06-17T15:42:10Z" version="1" visible="true" user="test-dev" uid="2972" lat="40.7475902" lon="-73.9721704">
        <tag k="amenity" v="cafe"/>
        <tag k="name" v="'wichcraft"/>
        <tag k="opening_hours" v="24/7"/>
        <tag k="shop" v="cafe"/>
        <tag k="website" v="http://alcalarestaurant.com/"/>
    </node>
    <node id="4299549304" changeset="63587" timestamp="2015-06-17T15:42:10Z" version="1" visible="true" user="test-dev" uid="2972" lat="40.7465498" lon="-73.9717412">
        <tag k="amenity" v="cafe"/>
        <tag k="name" v="4food"/>
        <tag k="opening_hours" v="11:30 - 23:00"/>
        <tag k="shop" v="cafe"/>
        <tag k="website" v="http://alcalarestaurant.com/"/>
    </node>
    <node id="4299549305" changeset="63587" timestamp="2015-06-17T15:42:10Z" version="1" visible="true" user="test-dev" uid="2972" lat="40.7446397" lon="-73.9745843">
        <tag k="amenity" v="cafe"/>
        <tag k="name" v="'wichcraft"/>
        <tag k="opening_hours" v="24/7"/>
        <tag k="shop" v="cafe"/>
        <tag k="website" v="http://53rdand6th.com/"/>
    </node>
    <node id="4299549306" changeset="63587" timestamp="2015-06-17T15:42:11Z" version="1" visible="true" user="test-dev" uid="2972" lat="40.7435504" lon="-73.9755607">
        <tag k="amenity" v="cafe"/>
        <tag k="name" v="'wichcraft"/>
        <tag k="opening_hours" v="24/7"/>
        <tag k="shop" v="cafe"/>
        <tag k="website" v="http://alcalarestaurant.com/"/>
    </node>
    <node id="4299549307" changeset="63587" timestamp="2015-06-17T15:42:11Z" version="1" visible="true" user="test-dev" uid="2972" lat="40.7468668" lon="-73.9737689">
        <tag k="amenity" v="cafe"/>
        <tag k="name" v="'wichcraft"/>
        <tag k="opening_hours" v="24/7"/>
        <tag k="shop" v="cafe"/>
        <tag k="website" v="http://53rdand6th.com/"/>
    </node>
    <node id="4299549308" changeset="63587" timestamp="2015-06-17T15:42:11Z" version="1" visible="true" user="test-dev" uid="2972" lat="40.7485087" lon="-73.9788866">
        <tag k="amenity" v="cafe"/>
        <tag k="name" v="4food"/>
        <tag k="opening_hours" v="24/7"/>
        <tag k="shop" v="cafe"/>
        <tag k="website" v="http://aokijapanese.com/"/>
    </node>
    <node id="4299549309" changeset="63587" timestamp="2015-06-17T15:42:12Z" version="1" visible="true" user="test-dev" uid="2972" lat="40.7485737" lon="-73.9810967">
        <tag k="amenity" v="cafe"/>
        <tag k="name" v="44th Street Minar"/>
        <tag k="opening_hours" v="24/7"/>
        <tag k="shop" v="cafe"/>
        <tag k="website" v="http://alcalarestaurant.com/"/>
    </node>
    <node id="4299549310" changeset="63587" timestamp="2015-06-17T15:42:12Z" version="1" visible="true" user="test-dev" uid="2972" lat="40.7486794" lon="-73.9720201">
        <tag k="amenity" v="cafe"/>
        <tag k="name" v="'wichcraft"/>
        <tag k="opening_hours" v="24/7"/>
        <tag k="shop" v="cafe"/>
        <tag k="website" v="http://alcalarestaurant.com/"/>
    </node>
    <node id="4299549311" changeset="63587" timestamp="2015-06-17T15:42:12Z" version="1" visible="true" user="test-dev" uid="2972" lat="40.7503293" lon="-73.9743698">
        <tag k="amenity" v="cafe"/>
        <tag k="name" v="de"/>
        <tag k="opening_hours" v="24/7"/>
        <tag k="shop" v="cafe"/>
        <tag k="website" v="http://53rdand6th.com/"/>
    </node>
    <node id="4299549312" changeset="63587" timestamp="2015-06-17T15:42:12Z" version="1" visible="true" user="test-dev" uid="2972" lat="40.7487363" lon="-73.9761829">
        <tag k="amenity" v="cafe"/>
        <tag k="name" v="44th Street Minar"/>
        <tag k="opening_hours" v="24/7"/>
        <tag k="shop" v="cafe"/>
        <tag k="website" v="http://53rdand6th.com/"/>
    </node>
    <node id="4299549313" changeset="63587" timestamp="2015-06-17T15:42:13Z" version="1" visible="true" user="test-dev" uid="2972" lat="40.7476634" lon="-73.9746165">
        <tag k="amenity" v="cafe"/>
        <tag k="name" v="44th Street Minar"/>
        <tag k="opening_hours" v="24/7"/>
        <tag k="shop" v="cafe"/>
        <tag k="website" v="http://alcalarestaurant.com/"/>
    </node>
    <node id="4299549314" changeset="63587" timestamp="2015-06-17T15:42:13Z" version="1" visible="true" user="test-dev" uid="2972" lat="40.7493459" lon="-73.9735973">
        <tag k="amenity" v="cafe"/>
        <tag k="name" v="44th Street Minar"/>
        <tag k="opening_hours" v="11:30 - 23:00"/>
        <tag k="shop" v="cafe"/>
        <tag k="website" v="http://53rdand6th.com/"/>
    </node>
    <node id="4299549315" changeset="63588" timestamp="2015-06-17T15:50:51Z" version="1" visible="true" user="test-dev" uid="2972" lat="40.7536779" lon="-73.9701962">
        <tag k="amenity" v="cafe"/>
        <tag k="name" v="44th Street Minar"/>
        <tag k="opening_hours" v="Mo-Fr 11:45-14:30, 17:30-22:30;Sa 17:30-22:30;Su off"/>
        <tag k="shop" v="cafe"/>
        <tag k="website" v="http://alcalarestaurant.com/"/>
    </node>
    <node id="4299549316" changeset="63589" timestamp="2015-06-17T15:52:34Z" version="1" visible="true" user="test-dev" uid="2972" lat="40.7537841" lon="-73.9835261">
        <tag k="amenity" v="cafe"/>
        <tag k="name" v="'wichcraft"/>
        <tag k="opening_hours" v="24/7"/>
        <tag k="shop" v="cafe"/>
        <tag k="website" v="http://ammosnewyork.com/"/>
    </node>
    <node id="4299549317" changeset="63589" timestamp="2015-06-17T15:52:41Z" version="1" visible="true" user="test-dev" uid="2972" lat="40.7530114" lon="-73.969059">
        <tag k="amenity" v="cafe"/>
        <tag k="name" v="44th Street Minar"/>
        <tag k="opening_hours" v="24/7"/>
        <tag k="shop" v="cafe"/>
        <tag k="website" v="http://ammosnewyork.com/"/>
    </node>
    <node id="4299549318" changeset="63590" timestamp="2015-06-17T15:57:25Z" version="1" visible="true" user="test-dev" uid="2972" lat="40.7512234" lon="-73.9673102">
        <tag k="amenity" v="cafe"/>
        <tag k="name" v="44th Street Minar"/>
        <tag k="opening_hours" v="24/7"/>
        <tag k="shop" v="cafe"/>
        <tag k="website" v="http://ammosnewyork.com/"/>
    </node>
    <node id="4299549343" changeset="63610" timestamp="2015-06-18T08:06:23Z" version="1" visible="true" user="test-dev" uid="2972" lat="40.7451599" lon="-73.972857">
        <tag k="amenity" v="cafe"/>
        <tag k="name" v="44th Street Minar"/>
        <tag k="opening_hours" v="Mo-Fr. 07:30 - 22:00, Sa - Su. 08:00 - 22:00"/>
        <tag k="shop" v="cafe"/>
        <tag k="website" v="http://alcalarestaurant.com/"/>
    </node>
    <node id="4299549344" changeset="63611" timestamp="2015-06-18T08:09:07Z" version="1" visible="true" user="test-dev" uid="2972" lat="40.7488175" lon="-73.9698529">
        <tag k="amenity" v="cafe"/>
        <tag k="name" v="44th Street Minar"/>
        <tag k="opening_hours" v="Mo-Fr. 07:30 - 22:00, Sa - Su. 08:00 - 22:00"/>
        <tag k="shop" v="cafe"/>
        <tag k="website" v="http://bierhausnyc.com/"/>
    </node>
    <node id="4299549345" changeset="63611" timestamp="2015-06-18T08:09:07Z" version="1" visible="true" user="test-dev" uid="2972" lat="40.7500367" lon="-73.9686298">
        <tag k="amenity" v="cafe"/>
        <tag k="name" v="44th Street Minar"/>
        <tag k="opening_hours" v="Mo-Fr. 07:30 - 22:00, Sa - Su. 08:00 - 22:00"/>
        <tag k="shop" v="cafe"/>
        <tag k="website" v="http://bierhausnyc.com/"/>
    </node>
    <node id="4299549346" changeset="63611" timestamp="2015-06-18T08:09:08Z" version="1" visible="true" user="test-dev" uid="2972" lat="40.7473545" lon="-73.9699602">
        <tag k="amenity" v="cafe"/>
        <tag k="name" v="99C Pizza"/>
        <tag k="opening_hours" v="Mo-Fr. 07:30 - 22:00, Sa - Su. 08:00 - 22:00"/>
        <tag k="shop" v="cafe"/>
        <tag k="website" v="http://bierhausnyc.com/"/>
    </node>
    <node id="4299549347" changeset="63611" timestamp="2015-06-18T08:09:08Z" version="1" visible="true" user="test-dev" uid="2972" lat="40.7483299" lon="-73.9721489">
        <tag k="amenity" v="cafe"/>
        <tag k="name" v="44th Street Minar"/>
        <tag k="opening_hours" v="Mo-Fr. 07:30 - 22:00, Sa - Su. 08:00 - 22:00"/>
        <tag k="shop" v="cafe"/>
        <tag k="website" v="http://bierhausnyc.com/"/>
    </node>
    <node id="4299549348" changeset="63611" timestamp="2015-06-18T08:09:08Z" version="1" visible="true" user="test-dev" uid="2972" lat="40.7500042" lon="-73.9696491">
        <tag k="amenity" v="cafe"/>
        <tag k="name" v="99C Pizza"/>
        <tag k="opening_hours" v="Mo-Fr. 07:30 - 22:00, Sa - Su. 08:00 - 22:00"/>
        <tag k="shop" v="cafe"/>
        <tag k="website" v="http://bierhausnyc.com/"/>
    </node>
    <node id="4299549349" changeset="63611" timestamp="2015-06-18T08:09:08Z" version="1" visible="true" user="test-dev" uid="2972" lat="40.7479397" lon="-73.9713335">
        <tag k="amenity" v="cafe"/>
        <tag k="name" v="44th Street Minar"/>
        <tag k="opening_hours" v="Mo-Fr. 07:30 - 22:00, Sa - Su. 08:00 - 22:00"/>
        <tag k="shop" v="cafe"/>
        <tag k="website" v="de"/>
    </node>
    <node id="4299549350" changeset="63611" timestamp="2015-06-18T08:09:09Z" version="1" visible="true" user="test-dev" uid="2972" lat="40.7468506" lon="-73.9727926">
        <tag k="amenity" v="cafe"/>
        <tag k="name" v="44th Street Minar"/>
        <tag k="opening_hours" v="Mo-Fr. 07:30 - 22:00, Sa - Su. 08:00 - 22:00"/>
        <tag k="shop" v="cafe"/>
        <tag k="website" v="http://bierhausnyc.com/"/>
    </node>
    <node id="4299549351" changeset="63611" timestamp="2015-06-18T08:09:09Z" version="1" visible="true" user="test-dev" uid="2972" lat="40.7466392" lon="-73.9715159">
        <tag k="amenity" v="cafe"/>
        <tag k="name" v="99C Pizza"/>
        <tag k="opening_hours" v="Mo-Fr. 07:30 - 22:00, Sa - Su. 08:00 - 22:00"/>
        <tag k="shop" v="cafe"/>
        <tag k="website" v="http://bierhausnyc.com/"/>
    </node>
    <node id="4299549357" changeset="63615" timestamp="2015-06-18T08:40:43Z" version="1" visible="true" user="test-dev" uid="2972" lat="40.7488988" lon="-73.9741015">
        <tag k="amenity" v="cafe"/>
        <tag k="name" v="'wichcraft"/>
        <tag k="opening_hours" v="24/7"/>
        <tag k="shop" v="cafe"/>
        <tag k="website" v="http://alcalarestaurant.com/"/>
    </node>
    <node id="4299549359" changeset="63617" timestamp="2015-06-18T09:06:01Z" version="1" visible="true" user="test-dev" uid="2972" lat="40.7501952" lon="-73.9674981">
        <tag k="amenity" v="cafe"/>
        <tag k="name" v="'wichcraft"/>
        <tag k="opening_hours" v="11:00a-10:00p"/>
        <tag k="shop" v="cafe"/>
        <tag k="website" v="fairwaymarket.com/store-chelsea"/>
    </node>
    <node id="4299549352" changeset="63611" timestamp="2015-06-18T08:09:10Z" version="1" visible="true" user="test-dev" uid="2972" lat="40.7468466" lon="-73.9710032">
        <tag k="amenity" v="cafe"/>
        <tag k="name" v="44th Street Minar"/>
        <tag k="opening_hours" v="Mo-Fr. 07:30 - 22:00, Sa - Su. 08:00 - 22:00"/>
        <tag k="shop" v="cafe"/>
        <tag k="website" v="http://alcalarestaurant.com/"/>
    </node>
    <node id="4299549353" changeset="63611" timestamp="2015-06-18T08:09:10Z" version="1" visible="true" user="test-dev" uid="2972" lat="40.7481023" lon="-73.969059">
        <tag k="amenity" v="cafe"/>
        <tag k="name" v="99C Pizza"/>
        <tag k="opening_hours" v="Mo-Fr. 07:30 - 22:00, Sa - Su. 08:00 - 22:00"/>
        <tag k="shop" v="cafe"/>
        <tag k="website" v="de"/>
    </node>
    <node id="4299549354" changeset="63612" timestamp="2015-06-18T08:23:10Z" version="1" visible="true" user="test-dev" uid="2972" lat="40.7472245" lon="-73.9739621">
        <tag k="amenity" v="cafe"/>
        <tag k="name" v="'wichcraft"/>
        <tag k="opening_hours" v="24/7"/>
        <tag k="shop" v="cafe"/>
        <tag k="website" v="http://alcalarestaurant.com/"/>
    </node>
    <node id="4299549355" changeset="63613" timestamp="2015-06-18T08:24:33Z" version="1" visible="true" user="test-dev" uid="2972" lat="40.7468993" lon="-73.9757323">
        <tag k="amenity" v="cafe"/>
        <tag k="name" v="4food"/>
        <tag k="opening_hours" v="24/7"/>
        <tag k="shop" v="cafe"/>
        <tag k="website" v="http://ammosnewyork.com/"/>
    </node>
    <node id="4299549356" changeset="63614" timestamp="2015-06-18T08:25:34Z" version="1" visible="true" user="test-dev" uid="2972" lat="40.7467855" lon="-73.9762044">
        <tag k="amenity" v="cafe"/>
        <tag k="name" v="44th Street Minar"/>
        <tag k="opening_hours" v="24/7"/>
        <tag k="shop" v="cafe"/>
        <tag k="website" v="http://alcalarestaurant.com/"/>
    </node>
    <node id="4299549358" changeset="63616" timestamp="2015-06-18T08:41:59Z" version="1" visible="true" user="test-dev" uid="2972" lat="40.7450786" lon="-73.9765906">
        <tag k="amenity" v="restaurant"/>
        <tag k="drinking_water" v="hdhd"/>
        <tag k="name" v="'wichcraft"/>
        <tag k="source" v="survey"/>
        <tag k="toilets" v="hzh"/>
    </node>
    <node id="4299549412" changeset="63675" timestamp="2015-06-19T08:28:38Z" version="1" visible="true" user="test-dev" uid="2972" lat="40.7491397" lon="-73.9711699">
        <tag k="amenity" v="cafe"/>
        <tag k="name" v="99C Pizza"/>
        <tag k="opening_hours" v="Mo-Fr. 07:30 - 22:00, Sa - Su. 08:00 - 22:00"/>
        <tag k="shop" v="cafe"/>
        <tag k="website" v="http://alcalarestaurant.com/"/>
    </node>
    <node id="4299595648" changeset="63787" timestamp="2015-06-22T15:37:38Z" version="1" visible="true" user="test-dev" uid="2972" lat="40.7527139" lon="-73.9757316">
        <tag k="amenity" v="cafe"/>
        <tag k="name" v="2nd Avenue Deli (Former Location)"/>
        <tag k="opening_hours" v="11:30 - 23:00"/>
        <tag k="shop" v="cafe"/>
        <tag k="website" v="http://53rdand6th.com/"/>
    </node>
    <node id="4299604467" changeset="63829" timestamp="2015-06-23T12:37:27Z" version="1" visible="true" user="test-dev" uid="2972" lat="40.751711" lon="-73.9664626">
        <tag k="amenity" v="cafe"/>
        <tag k="name" v="44th Street Minar"/>
        <tag k="opening_hours" v="Mo-Fr. 07:30 - 22:00, Sa - Su. 08:00 - 22:00"/>
        <tag k="shop" v="cafe"/>
        <tag k="website" v="http://ammosnewyork.com/"/>
    </node>
    <node id="4299604468" changeset="63830" timestamp="2015-06-23T12:38:23Z" version="1" visible="true" user="test-dev" uid="2972" lat="40.7545231" lon="-73.9660462">
        <tag k="amenity" v="cafe"/>
        <tag k="name" v="99C Pizza"/>
        <tag k="opening_hours" v="24/7"/>
        <tag k="shop" v="cafe"/>
        <tag k="website" v="http://ammosnewyork.com/"/>
    </node>
    <node id="4299604469" changeset="63831" timestamp="2015-06-23T12:44:49Z" version="1" visible="true" user="test-dev" uid="2972" lat="40.7539867" lon="-73.9706683">
        <tag k="amenity" v="cafe"/>
        <tag k="name" v="e"/>
        <tag k="opening_hours" v="24/7"/>
        <tag k="shop" v="cafe"/>
        <tag k="website" v="http://alcalarestaurant.com/"/>
    </node>
    <node id="4299604470" changeset="63832" timestamp="2015-06-23T12:46:17Z" version="1" visible="true" user="test-dev" uid="2972" lat="40.7543281" lon="-73.9718914">
        <tag k="amenity" v="cafe"/>
        <tag k="name" v="Abitino"/>
        <tag k="opening_hours" v="24/7"/>
        <tag k="shop" v="cafe"/>
        <tag k="website" v="http://bierhausnyc.com/"/>
    </node>
    <node id="4299604475" changeset="63835" timestamp="2015-06-24T10:11:53Z" version="1" visible="true" user="test-dev" uid="2972" lat="40.7498254" lon="-73.9710224">
        <tag k="amenity" v="cafe"/>
        <tag k="name" v="12 Chairs"/>
        <tag k="opening_hours" v="de"/>
        <tag k="shop" v="cafe"/>
        <tag k="website" v="ctownsupermarkets.com"/>
    </node>
    <node id="4299604477" changeset="63837" timestamp="2015-06-24T10:15:06Z" version="1" visible="true" user="test-dev" uid="2972" lat="40.7495146" lon="-73.9764397">
        <tag k="amenity" v="cafe"/>
        <tag k="name" v="'wichcraft"/>
        <tag k="opening_hours" v="11 AM - 11 PM"/>
        <tag k="shop" v="cafe"/>
        <tag k="website" v="ctownsupermarkets.com"/>
    </node>
    <node id="4299604478" changeset="63838" timestamp="2015-06-24T10:16:38Z" version="1" visible="true" user="test-dev" uid="2972" lat="40.7503274" lon="-73.9761979">
        <tag k="amenity" v="restaurant"/>
        <tag k="drinking_water" v="hdhfhf"/>
        <tag k="name" v="12 Chairs"/>
        <tag k="source" v="+1 212-982-8895"/>
        <tag k="toilets" v="jfjdj"/>
    </node>
    <node id="4299604483" changeset="63843" timestamp="2015-06-24T12:18:31Z" version="1" visible="true" user="test-dev" uid="2972" lat="40.7554008" lon="-73.9737689">
        <tag k="amenity" v="cafe"/>
        <tag k="name" v="'wichcraft"/>
        <tag k="opening_hours" v="11 AM - 11 PM"/>
        <tag k="shop" v="cafe"/>
        <tag k="website" v="destefanossteakhouse.com/"/>
    </node>
    <node id="4299604484" changeset="63844" timestamp="2015-06-24T12:56:30Z" version="1" visible="true" user="test-dev" uid="2972" lat="40.7497197" lon="-73.9699602">
        <tag k="amenity" v="cafe"/>
        <tag k="name" v="12 Chairs"/>
        <tag k="opening_hours" v="11 AM - 11 PM"/>
        <tag k="shop" v="cafe"/>
        <tag k="website" v="co-pane.com"/>
    </node>
    <node id="4299604488" changeset="63854" timestamp="2015-06-24T14:00:21Z" version="2" visible="true" user="test-dev" uid="2972" lat="40.7470294" lon="-73.9707112">
        <tag k="amenity" v="cafe"/>
        <tag k="name" v="'wichcraft"/>
        <tag k="opening_hours" v="11 AM - 11 PM"/>
        <tag k="shop" v="cafe"/>
        <tag k="website" v="destefanossteakhouse.com/"/>
    </node>
    <node id="4299604489" changeset="63854" timestamp="2015-06-24T14:00:21Z" version="4" visible="true" user="test-dev" uid="2972" lat="40.752475" lon="-73.967042">
        <tag k="amenity" v="cafe"/>
        <tag k="name" v="12 Chairs"/>
        <tag k="opening_hours" v="11 AM - 11 PM"/>
        <tag k="shop" v="cafe"/>
        <tag k="website" v="ctownsupermarkets.com"/>
    </node>
    <node id="4299604486" changeset="63856" timestamp="2015-06-24T14:20:19Z" version="3" visible="true" user="test-dev" uid="2972" lat="40.7499636" lon="-73.9663553">
        <tag k="amenity" v="cafe"/>
        <tag k="name" v="12 Chairs"/>
        <tag k="opening_hours" v="11 AM - 11 PM"/>
        <tag k="shop" v="cafe"/>
        <tag k="website" v="ctownsupermarkets.com"/>
    </node>
    <node id="4299604490" changeset="63858" timestamp="2015-06-24T15:32:16Z" version="2" visible="true" user="test-dev" uid="2972" lat="40.7504756" lon="-73.9698851">
        <tag k="amenity" v="cafe"/>
        <tag k="name" v="La Goulette"/>
        <tag k="opening_hours" v="gfg"/>
        <tag k="shop" v="cafe"/>
        <tag k="website" v="fjhf"/>
    </node>
    <node id="4299614391" changeset="63878" timestamp="2015-06-25T09:34:19Z" version="1" visible="true" user="test-dev" uid="2972" lat="40.7515884" lon="-73.9706941">
        <tag k="amenity" v="cafe"/>
        <tag k="name" v="2 Bros Pizza"/>
        <tag k="opening_hours" v="11:30 - 23:00"/>
        <tag k="shop" v="cafe"/>
        <tag k="website" v="http://44andx.com/"/>
    </node>
    <node id="4299616621" changeset="63926" timestamp="2015-06-26T12:23:31Z" version="1" visible="true" user="test-dev" uid="2972" lat="40.7646998" lon="-73.9548446">
        <tag k="amenity" v="cafe"/>
        <tag k="name" v="12 Chairs"/>
        <tag k="opening_hours" v="11:00-23:00"/>
        <tag k="shop" v="cafe"/>
        <tag k="website" v="co-pane.com"/>
    </node>
    <node id="4299616623" changeset="63928" timestamp="2015-06-26T13:30:09Z" version="2" visible="true" user="test-dev" uid="2972" lat="40.7517273" lon="-73.9714515">
        <tag k="amenity" v="cafe"/>
        <tag k="name" v="nico"/>
        <tag k="opening_hours" v="11:30 - 23:00"/>
        <tag k="shop" v="cafe"/>
        <tag k="website" v="http://alcalarestaurant.com/"/>
    </node>
    <node id="4299627640" changeset="63955" timestamp="2015-06-29T15:21:44Z" version="1" visible="true" user="test-dev" uid="2972" lat="40.7565371" lon="-73.9732253">
        <tag k="amenity" v="cafe"/>
        <tag k="name" v="16 Handles"/>
        <tag k="opening_hours" v="10:00-22:00"/>
        <tag k="shop" v="cafe"/>
        <tag k="website" v="famousoriginalrayschelsea.com"/>
    </node>
    <node id="4300933962" changeset="67963" timestamp="2015-11-27T06:43:35Z" version="1" visible="true" user="Naptune" uid="2702" lat="40.75204" lon="-73.97633">
        <tag k="name" v="test hotel"/>
        <tag k="note" v="Just test a node"/>
    </node>
    <node id="4300933963" changeset="67963" timestamp="2015-11-27T06:45:18Z" version="1" visible="true" user="Naptune" uid="2702" lat="40.75204" lon="-73.97633">
        <tag k="name" v="Grand Hyatt Seattle"/>
        <tag k="note" v="Just test a node"/>
    </node>
    <node id="4300933964" changeset="67963" timestamp="2015-11-27T06:51:48Z" version="1" visible="true" user="Naptune" uid="2702" lat="40.75203" lon="-73.97632">
        <tag k="name" v="Grand Hyatt newyork"/>
        <tag k="note" v="Just test a node-2"/>
    </node>
    <node id="8549162" changeset="16779" timestamp="2012-12-04T23:16:33Z" version="1" visible="true" user="ideditor" uid="912" lat="40.7048957" lon="-74.0168525"/>
    <node id="8549163" changeset="16779" timestamp="2012-12-04T23:16:33Z" version="1" visible="true" user="ideditor" uid="912" lat="40.7099469" lon="-74.0148111"/>
    <node id="8549165" changeset="16779" timestamp="2012-12-04T23:16:33Z" version="1" visible="true" user="ideditor" uid="912" lat="40.7108812" lon="-74.0093032"/>
    <node id="8549166" changeset="16779" timestamp="2012-12-04T23:16:33Z" version="1" visible="true" user="ideditor" uid="912" lat="40.7088812" lon="-74.0053552"/>
    <node id="8549167" changeset="16779" timestamp="2012-12-04T23:16:33Z" version="1" visible="true" user="ideditor" uid="912" lat="40.7063264" lon="-74.003256"/>
    <way id="538819" changeset="16779" timestamp="2012-12-04T23:16:33Z" version="1" visible="true" user="ideditor" uid="912">
        <nd ref="8549162"/>
        <nd ref="8549163"/>
        <nd ref="8549164"/>
        <nd ref="8549165"/>
        <nd ref="8549166"/>
        <nd ref="8549167"/>
        <tag k="highway" v="residential"/>
    </way>
    <way id="4294967535" changeset="22472" timestamp="2013-04-16T12:36:35Z" version="4" visible="true" user="vampouille" uid="1147">
        <nd ref="4294969664"/>
        <nd ref="4294969665"/>
        <nd ref="4294969666"/>
        <nd ref="4294969667"/>
        <tag k="highway" v="residential"/>
        <tag k="maxspeed" v="70"/>
    </way>
</osm>
